NORAD_CAT_ID,OBJECT_NAME,OBJECT_TYPE,EPOCH,MEAN_MOTION,ECCENTRICITY,INCLINATION,RA_OF_ASC_NODE,ARG_OF_PERICENTER,MEAN_ANOMALY,BSTAR,MEAN_MOTION_DOT,MEAN_MOTION_DDOT,TLE_LINE0,TLE_LINE1,TLE_LINE2,SEMIMAJOR_AXIS,PERIOD,APOGEE,PERIGEE,DECAYED
55652.0,STARLINK-5487,PAYLOAD,2023-04-29 15:24:16,15.7026028,0.0004844,70.0008,310.6765,269.6701,90.394,0.00081858,0.0010083,0.0,0 STARLINK-5487,1 55652U 23021AA  23119.64185621  .00100830  00000-0  81858-3 0  9995,2 55652  70.0008 310.6765 0004844 269.6701  90.3940 15.70260280 11669,6736.29,91.705,361.418,354.891,0.0
55652.0,STARLINK-5487,PAYLOAD,2023-04-29 21:31:06,15.70465124,0.0005784,70.0007,309.9601,267.2052,92.8482,0.0011804,0.00147592,0.0,0 STARLINK-5487,1 55652U 23021AA  23119.89659843  .00147592  00000-0  11804-2 0  9993,2 55652  70.0007 309.9601 0005784 267.2052  92.8482 15.70465124 11702,6735.704,91.693,361.465,353.673,0.0
55652.0,STARLINK-5487,PAYLOAD,2023-04-30 20:27:46,15.69971268,0.0003942,70.0003,307.2733,273.9841,86.0904,0.0002182,0.0002616,0.0,0 STARLINK-5487,1 55652U 23021AA  23120.85262471  .00026160  00000-0  21820-3 0  9995,2 55652  70.0003 307.2733 0003942 273.9841  86.0904 15.69971268 11858,6737.116,91.721,361.637,356.325,0.0
55652.0,STARLINK-5487,PAYLOAD,2023-05-01 14:48:49,15.69929507,0.0003345,69.9991,305.1225,256.5813,103.501,3.4203e-05,3.903e-05,0.0,0 STARLINK-5487,1 55652U 23021AA  23121.61723428  .00003903  00000-0  34203-4 0  9994,2 55652  69.9991 305.1225 0003345 256.5813 103.5010 15.69929507 11972,6737.236,91.724,361.354,356.847,0.0
55652.0,STARLINK-5487,PAYLOAD,2023-05-01 20:55:49,15.69936184,0.0003429,69.9982,304.4064,258.3172,101.7639,5.6265e-05,6.561e-05,0.0,0 STARLINK-5487,1 55652U 23021AA  23121.87209913  .00006561  00000-0  56265-4 0  9995,2 55652  69.9982 304.4064 0003429 258.3172 101.7639 15.69936184 12322,6737.217,91.723,361.392,356.771,0.0
55652.0,STARLINK-5487,PAYLOAD,2023-05-02 13:45:05,15.69926708,0.0003649,69.9981,302.4346,269.1357,90.9421,1.6112e-05,1.725e-05,0.0,0 STARLINK-5487,1 55652U 23021AA  23122.57298556  .00001725  00000-0  16112-4 0  9998,2 55652  69.9981 302.4346 0003649 269.1357  90.9421 15.69926708 12128,6737.244,91.724,361.567,356.65,0.0
55652.0,STARLINK-5487,PAYLOAD,2023-05-02 21:23:51,15.69917212,0.0003206,69.9996,301.5409,267.5214,92.5615,-1.2044e-05,-1.66e-05,0.0,0 STARLINK-5487,1 55652U 23021AA  23122.89157367 -.00001660  00000-0 -12044-4 0  9997,2 55652  69.9996 301.5409 0003206 267.5214  92.5615 15.69917212 12489,6737.271,91.725,361.296,356.976,0.0
55652.0,STARLINK-5487,PAYLOAD,2023-05-03 14:00:01,15.6996503,0.0003654,70.0003,299.5944,269.7641,38.8353,-0.00063071,-0.00075506,0.0,0 STARLINK-5487,1 55652U 23021AA  23123.58334491 -.00075506  00000-0 -63071-3 0  9994,2 55652  70.0003 299.5944 0003654 269.7641  38.8353 15.69965030 12287,6737.134,91.722,361.461,356.537,0.0
55652.0,STARLINK-5487,PAYLOAD,2023-05-03 20:20:08,15.69928205,0.0003445,69.9991,298.8538,280.4727,79.6081,6.286e-05,7.354e-05,0.0,0 STARLINK-5487,1 55652U 23021AA  23123.84732236  .00007354  00000-0  62860-4 0  9992,2 55652  69.9991 298.8538 0003445 280.4727  79.6081 15.69928205 12323,6737.239,91.724,361.425,356.783,0.0
55652.0,STARLINK-5487,PAYLOAD,2023-05-04 13:09:25,15.69925657,0.0003451,69.9996,296.8819,276.7774,83.3029,2.2091e-05,2.444e-05,0.0,0 STARLINK-5487,1 55652U 23021AA  23124.54820632  .00002444  00000-0  22091-4 0  9995,2 55652  69.9996 296.8819 0003451 276.7774  83.3029 15.69925657 12439,6737.247,91.724,361.437,356.787,0.0
55652.0,STARLINK-5487,PAYLOAD,2023-05-04 20:48:10,15.6992151,0.0003171,69.9999,295.9862,281.376,78.7079,7.3575e-06,6.72e-06,0.0,0 STARLINK-5487,1 55652U 23021AA  23124.86679214  .00000672  00000-0  73575-5 0  9993,2 55652  69.9999 295.9862 0003171 281.3760  78.7079 15.69921510 12792,6737.259,91.724,361.26,356.987,0.0
55652.0,STARLINK-5487,PAYLOAD,2023-05-05 04:26:56,15.69916612,0.0003205,69.9999,295.0905,275.2862,84.7968,3.9522e-05,4.541e-05,0.0,0 STARLINK-5487,1 55652U 23021AA  23125.18537958  .00004541  00000-0  39522-4 0  9999,2 55652  69.9999 295.0905 0003205 275.2862  84.7968 15.69916612 12537,6737.273,91.725,361.297,356.978,0.0
55652.0,STARLINK-5487,PAYLOAD,2023-05-05 21:16:12,15.69932991,0.0003575,69.9992,293.1194,273.1729,86.9058,3.3203e-05,3.783e-05,0.0,0 STARLINK-5487,1 55652U 23021AA  23125.88625509  .00003783  00000-0  33203-4 0  9993,2 55652  69.9992 293.1194 0003575 273.1729  86.9058 15.69932991 12642,6737.226,91.724,361.499,356.682,0.0
55652.0,STARLINK-5487,PAYLOAD,2023-05-06 14:05:28,15.69935599,0.0003597,69.9992,291.1479,272.58,87.4984,3.2148e-05,3.656e-05,0.0,0 STARLINK-5487,1 55652U 23021AA  23126.58713667  .00003656  00000-0  32148-4 0  9990,2 55652  69.9992 291.1479 0003597 272.5800  87.4984 15.69935599 13061,6737.218,91.724,361.507,356.66,0.0
55652.0,STARLINK-5487,PAYLOAD,2023-05-07 03:51:15,15.69913784,0.0003201,69.9997,289.5362,274.0626,86.0204,-7.4046e-06,-1.102e-05,0.0,0 STARLINK-5487,1 55652U 23021AA  23127.16059760 -.00001102  00000-0 -74046-5 0  9992,2 55652  69.9997 289.5362 0003201 274.0626  86.0204 15.69913784 12840,6737.281,91.725,361.302,356.989,0.0
55652.0,STARLINK-5487,PAYLOAD,2023-05-07 13:01:46,15.69916492,0.0003237,70.0,288.4611,274.0506,86.032,1.3843e-07,-1.96e-06,0.0,0 STARLINK-5487,1 55652U 23021AA  23127.54289922 -.00000196  00000-0  13843-6 0  9999,2 55652  70.0000 288.4611 0003237 274.0506  86.0320 15.69916492 13219,6737.273,91.725,361.319,356.957,0.0
55652.0,STARLINK-5487,PAYLOAD,2023-05-07 20:40:31,15.69932686,0.0003131,70.0018,287.5666,267.8164,92.2673,7.5864e-05,8.922e-05,0.0,0 STARLINK-5487,1 55652U 23021AA  23127.86147931  .00008922  00000-0  75864-4 0  9990,2 55652  70.0018 287.5666 0003131 267.8164  92.2673 15.69932686 12954,6737.227,91.724,361.201,356.982,0.0
55652.0,STARLINK-5487,PAYLOAD,2023-05-08 19:36:48,15.69937293,0.0003753,70.0005,284.8774,262.3856,97.6913,5.8365e-05,6.815e-05,0.0,0 STARLINK-5487,1 55652U 23021AA  23128.81722423  .00006815  00000-0  58365-4 0  9997,2 55652  70.0005 284.8774 0003753 262.3856  97.6913 15.69937293 13415,6737.213,91.723,361.607,356.55,0.0
55652.0,STARLINK-5487,PAYLOAD,2023-05-09 13:57:50,15.69924464,0.0003514,70.0013,282.7295,269.8265,90.2528,1.078e-05,1.084e-05,0.0,0 STARLINK-5487,1 55652U 23021AA  23129.58182953  .00001084  00000-0  10780-4 0  9992,2 55652  70.0013 282.7295 0003514 269.8265  90.2528 15.69924464 13530,6737.25,91.724,361.483,356.748,0.0
55652.0,STARLINK-5487,PAYLOAD,2023-05-10 12:54:06,15.69936186,0.0003343,70.0009,280.0414,264.3039,95.7775,8.2472e-05,9.72e-05,0.0,0 STARLINK-5487,1 55652U 23021AA  23130.53757913  .00009720  00000-0  82472-4 0  9995,2 55652  70.0009 280.0414 0003343 264.3039  95.7775 15.69936186 13682,6737.217,91.723,361.334,356.829,0.0
55652.0,STARLINK-5487,PAYLOAD,2023-05-10 17:29:22,15.69948173,0.0003238,70.0011,279.5041,267.7112,92.3713,0.00015101,0.00018002,0.0,0 STARLINK-5487,1 55652U 23021AA  23130.72872704  .00018002  00000-0  15101-3 0  9999,2 55652  70.0011 279.5041 0003238 267.7112  92.3713 15.69948173 13400,6737.182,91.723,361.229,356.866,0.0
55652.0,STARLINK-5487,PAYLOAD,2023-05-10 19:01:07,15.69952939,0.0003213,70.0011,279.3249,267.1761,92.9067,0.00017989,0.00021498,0.0,0 STARLINK-5487,1 55652U 23021AA  23130.79244278  .00021498  00000-0  17989-3 0  9994,2 55652  70.0011 279.3249 0003213 267.1761  92.9067 15.69952939 13723,6737.169,91.722,361.198,356.869,0.0
55652.0,STARLINK-5487,PAYLOAD,2023-05-11 10:18:38,15.69924985,0.0003265,70.0009,277.5359,270.8206,89.2616,4.6038e-05,5.327e-05,0.0,0 STARLINK-5487,1 55652U 23021AA  23131.42961587  .00005327  00000-0  46038-4 0  9995,2 55652  70.0009 277.5359 0003265 270.8206  89.2616 15.69924985 13824,6737.249,91.724,361.313,356.914,0.0
55652.0,STARLINK-5487,PAYLOAD,2023-05-11 11:50:23,15.69916543,0.000363,70.0006,277.3564,257.0462,103.0328,1.1779e-06,-7.1e-07,0.0,0 STARLINK-5487,1 55652U 23021AA  23131.49333204 -.00000071  00000-0  11779-5 0  9998,2 55652  70.0006 277.3564 0003630 257.0462 103.0328 15.69916543 13527,6737.273,91.725,361.583,356.692,0.0
55652.0,STARLINK-5487,PAYLOAD,2023-05-11 16:25:39,15.69917383,0.000357,70.0006,276.8199,260.7307,99.3485,2.4309e-05,2.71e-05,0.0,0 STARLINK-5487,1 55652U 23021AA  23131.68448406  .00002710  00000-0  24309-4 0  9993,2 55652  70.0006 276.8199 0003570 260.7307  99.3485 15.69917383 13868,6737.27,91.725,361.541,356.73,0.0
55652.0,STARLINK-5487,PAYLOAD,2023-05-12 03:07:55,15.69928135,0.0003443,70.0004,275.5636,268.0254,92.0548,0.00010176,0.00012043,0.0,0 STARLINK-5487,1 55652U 23021AA  23132.13050203  .00012043  00000-0  10176-3 0  9994,2 55652  70.0004 275.5636 0003443 268.0254  92.0548 15.69928135 13934,6737.24,91.724,361.424,356.785,0.0
55652.0,STARLINK-5487,PAYLOAD,2023-05-12 18:25:26,15.69943433,0.0003486,70.0012,273.7725,269.2622,90.8174,0.00012845,0.00015273,0.0,0 STARLINK-5487,1 55652U 23021AA  23132.76766396  .00015273  00000-0  12845-3 0  9993,2 55652  70.0012 273.7725 0003486 269.2622  90.8174 15.69943433 13727,6737.196,91.723,361.409,356.712,0.0
55652.0,STARLINK-5487,PAYLOAD,2023-05-13 12:46:27,15.69921764,0.0003798,70.0001,271.6253,265.5606,94.5156,7.6e-06,7.01e-06,0.0,0 STARLINK-5487,1 55652U 23021AA  23133.53226715  .00000701  00000-0  76000-5 0  9990,2 55652  70.0001 271.6253 0003798 265.5606  94.5156 15.69921764 13842,6737.258,91.724,361.682,356.564,0.0
55652.0,STARLINK-5487,PAYLOAD,2023-05-13 18:53:28,15.69926988,0.0003355,70.0009,270.9056,264.4613,95.62,2.8786e-05,3.25e-05,0.0,0 STARLINK-5487,1 55652U 23021AA  23133.78713657  .00003250  00000-0  28786-4 0  9992,2 55652  70.0009 270.9056 0003355 264.4613  95.6200 15.69926988 14192,6737.243,91.724,361.368,356.848,0.0
55652.0,STARLINK-5487,PAYLOAD,2023-05-14 11:42:44,15.69930335,0.0003514,70.0006,268.9365,263.7522,96.3274,2.431e-05,2.712e-05,0.0,0 STARLINK-5487,1 55652U 23021AA  23134.48801775  .00002712  00000-0  24310-4 0  9990,2 55652  70.0006 268.9365 0003514 263.7522  96.3274 15.69930335 14300,6737.233,91.724,361.466,356.731,0.0
